{
    "links": {
        "self": "http://www.neowsapp.com/rest/v1/neo/3797691?api_key=iIulBulltgU6a56xZRHN4H3l9WmuAYTsLGpBGhQ2"
    },
    "id": "3797691",
    "neo_reference_id": "3797691",
    "name": "(2018 AK12)",
    "designation": "2018 AK12",
    "nasa_jpl_url": "http://ssd.jpl.nasa.gov/sbdb.cgi?sstr=3797691",
    "absolute_magnitude_h": 25.2,
    "estimated_diameter": {
        "kilometers": {
            "estimated_diameter_min": 0.0242412481,
            "estimated_diameter_max": 0.0542050786
        },
        "meters": {
            "estimated_diameter_min": 24.2412481101,
            "estimated_diameter_max": 54.2050786336
        },
        "miles": {
            "estimated_diameter_min": 0.0150628086,
            "estimated_diameter_max": 0.0336814639
        },
        "feet": {
            "estimated_diameter_min": 79.5316564495,
            "estimated_diameter_max": 177.8381901842
        }
    },
    "is_potentially_hazardous_asteroid": false,
    "close_approach_data": [
        {
            "close_approach_date": "2018-01-23",
            "close_approach_date_full": "2018-Jan-23 05:07",
            "epoch_date_close_approach": 1516684020000,
            "relative_velocity": {
                "kilometers_per_second": "22.3025203532",
                "kilometers_per_hour": "80289.0732716611",
                "miles_per_hour": "49888.5077781608"
            },
            "miss_distance": {
                "astronomical": "0.0179032343",
                "lunar": "6.9643581427",
                "kilometers": "2678285.717390941",
                "miles": "1664209.5743633458"
            },
            "orbiting_body": "Earth"
        }
    ],
    "orbital_data": {
        "orbit_id": "2",
        "orbit_determination_date": "2018-01-20 06:52:52",
        "first_observation_date": "2018-01-14",
        "last_observation_date": "2018-01-20",
        "data_arc_in_days": 6,
        "observations_used": 13,
        "orbit_uncertainty": "9",
        "minimum_orbit_intersection": ".000313191",
        "jupiter_tisserand_invariant": "3.572",
        "epoch_osculation": "2458133.5",
        "eccentricity": ".7077301314647697",
        "semi_major_axis": "1.915928323515111",
        "inclination": "2.52201824793889",
        "ascending_node_longitude": "303.4138730486398",
        "orbital_period": "968.6509605358366",
        "perihelion_distance": ".5599681192366855",
        "perihelion_argument": "272.7720041814561",
        "aphelion_distance": "3.271888527793536",
        "perihelion_time": "2458187.773015553915",
        "mean_anomaly": "339.8293849947754",
        "mean_motion": ".3716508986899221",
        "equinox": "J2000",
        "orbit_class": {
            "orbit_class_type": "APO",
            "orbit_class_description": "Near-Earth asteroid orbits which cross the Earth’s orbit similar to that of 1862 Apollo",
            "orbit_class_range": "a (semi-major axis) > 1.0 AU; q (perihelion) < 1.017 AU"
        }
    },
    "is_sentry_object": false
}